[{"OBJECT_NAME":"STARLINK-3826","OBJECT_ID":"2022-045S","EPOCH":"2026-03-09T15:40:26.978592","MEAN_MOTION":15.08845535,"ECCENTRICITY":0.00014177,"INCLINATION":53.2167,"RA_OF_ASC_NODE":199.2929,"ARG_OF_PERICENTER":91.9647,"MEAN_ANOMALY":268.1507,"EPHEMERIS_TYPE":0,"CLASSIFICATION_TYPE":"U","NORAD_CAT_ID":52347,"ELEMENT_SET_NO":999,"REV_AT_EPOCH":21577,"BSTAR":4.7383762e-5,"MEAN_MOTION_DOT":4.66e-6,"MEAN_MOTION_DDOT":0},{"OBJECT_NAME":"THORAD AGENA D DEB","OBJECT_ID":"1969-082Z","EPOCH":"2026-03-09T07:18:45.871776","MEAN_MOTION":15.11837328,"ECCENTRICITY":0.00204275,"INCLINATION":70.0067,"RA_OF_ASC_NODE":36.7332,"ARG_OF_PERICENTER":221.6463,"MEAN_ANOMALY":138.3149,"EPHEMERIS_TYPE":0,"CLASSIFICATION_TYPE":"U","NORAD_CAT_ID":4157,"ELEMENT_SET_NO":999,"REV_AT_EPOCH":97934,"BSTAR":0.0014373482,"MEAN_MOTION_DOT":0.00024719,"MEAN_MOTION_DDOT":0}]
